CCSDS_OMM_VERS = 2.0
CREATION_DATE  = 
ORIGINATOR     = 

OBJECT_NAME    = STARLINK-35350
OBJECT_ID      = 2025-243L
CENTER_NAME    = EARTH
REF_FRAME      = TEME
TIME_SYSTEM    = UTC
MEAN_ELEMENT_THEORY = SGP/SGP4

EPOCH          = 2025-11-20T18:00:02.000160
MEAN_MOTION    = 15.49269310
ECCENTRICITY   = .0001082
INCLINATION    = 53.1594
RA_OF_ASC_NODE = 32.0089
ARG_OF_PERICENTER = 54.2971
MEAN_ANOMALY   = 327.3278

EPHEMERIS_TYPE = 0
CLASSIFICATION_TYPE = U
NORAD_CAT_ID   = 66187
ELEMENT_SET_NO = 999
REV_AT_EPOCH   = 504
BSTAR          = .89033E-3
MEAN_MOTION_DOT = .49312E-3
MEAN_MOTION_DDOT = 0

CCSDS_OMM_VERS = 2.0
CREATION_DATE  = 
ORIGINATOR     = 

OBJECT_NAME    = STARLINK-35041
OBJECT_ID      = 2025-243M
CENTER_NAME    = EARTH
REF_FRAME      = TEME
TIME_SYSTEM    = UTC
MEAN_ELEMENT_THEORY = SGP/SGP4

EPOCH          = 2025-11-20T18:00:02.000160
MEAN_MOTION    = 15.49271247
ECCENTRICITY   = .0001088
INCLINATION    = 53.1592
RA_OF_ASC_NODE = 31.9929
ARG_OF_PERICENTER = 52.5160
MEAN_ANOMALY   = 336.7694

EPHEMERIS_TYPE = 0
CLASSIFICATION_TYPE = U
NORAD_CAT_ID   = 66188
ELEMENT_SET_NO = 999
REV_AT_EPOCH   = 510
BSTAR          = .91786E-3
MEAN_MOTION_DOT = .50864E-3
MEAN_MOTION_DDOT = 0

CCSDS_OMM_VERS = 2.0
CREATION_DATE  = 
ORIGINATOR     = 

OBJECT_NAME    = STARLINK-34694
OBJECT_ID      = 2025-243N
CENTER_NAME    = EARTH
REF_FRAME      = TEME
TIME_SYSTEM    = UTC
MEAN_ELEMENT_THEORY = SGP/SGP4

EPOCH          = 2025-11-20T18:00:02.000160
MEAN_MOTION    = 15.49271362
ECCENTRICITY   = .0001014
INCLINATION    = 53.1596
RA_OF_ASC_NODE = 31.9847
ARG_OF_PERICENTER = 57.7610
MEAN_ANOMALY   = 335.3580

EPHEMERIS_TYPE = 0
CLASSIFICATION_TYPE = U
NORAD_CAT_ID   = 66189
ELEMENT_SET_NO = 999
REV_AT_EPOCH   = 504
BSTAR          = .89394E-3
MEAN_MOTION_DOT = .49519E-3
MEAN_MOTION_DDOT = 0

CCSDS_OMM_VERS = 2.0
CREATION_DATE  = 
ORIGINATOR     = 

OBJECT_NAME    = STARLINK-34863
OBJECT_ID      = 2025-243P
CENTER_NAME    = EARTH
REF_FRAME      = TEME
TIME_SYSTEM    = UTC
MEAN_ELEMENT_THEORY = SGP/SGP4

EPOCH          = 2025-11-20T18:00:02.000160
MEAN_MOTION    = 15.49269168
ECCENTRICITY   = .0001114
INCLINATION    = 53.1594
RA_OF_ASC_NODE = 31.9996
ARG_OF_PERICENTER = 52.1680
MEAN_ANOMALY   = 333.2865

EPHEMERIS_TYPE = 0
CLASSIFICATION_TYPE = U
NORAD_CAT_ID   = 66190
ELEMENT_SET_NO = 999
REV_AT_EPOCH   = 504
BSTAR          = .95335E-3
MEAN_MOTION_DOT = .52858E-3
MEAN_MOTION_DDOT = 0

CCSDS_OMM_VERS = 2.0
CREATION_DATE  = 
ORIGINATOR     = 

OBJECT_NAME    = STARLINK-35061
OBJECT_ID      = 2025-243Q
CENTER_NAME    = EARTH
REF_FRAME      = TEME
TIME_SYSTEM    = UTC
MEAN_ELEMENT_THEORY = SGP/SGP4

EPOCH          = 2025-11-20T18:00:02.000160
MEAN_MOTION    = 15.49258041
ECCENTRICITY   = .0001092
INCLINATION    = 53.1594
RA_OF_ASC_NODE = 31.9605
ARG_OF_PERICENTER = 60.8724
MEAN_ANOMALY   = 343.7650

EPHEMERIS_TYPE = 0
CLASSIFICATION_TYPE = U
NORAD_CAT_ID   = 66191
ELEMENT_SET_NO = 999
REV_AT_EPOCH   = 510
BSTAR          = .1142E-2
MEAN_MOTION_DOT = .6347E-3
MEAN_MOTION_DDOT = 0

CCSDS_OMM_VERS = 2.0
CREATION_DATE  = 
ORIGINATOR     = 

OBJECT_NAME    = STARLINK-34937
OBJECT_ID      = 2025-243R
CENTER_NAME    = EARTH
REF_FRAME      = TEME
TIME_SYSTEM    = UTC
MEAN_ELEMENT_THEORY = SGP/SGP4

EPOCH          = 2025-11-20T18:00:02.000160
MEAN_MOTION    = 15.49324598
ECCENTRICITY   = .0000984
INCLINATION    = 53.1593
RA_OF_ASC_NODE = 31.9643
ARG_OF_PERICENTER = 60.2332
MEAN_ANOMALY   = 342.4412

EPHEMERIS_TYPE = 0
CLASSIFICATION_TYPE = U
NORAD_CAT_ID   = 66192
ELEMENT_SET_NO = 999
REV_AT_EPOCH   = 483
BSTAR          = -.40425E-5
MEAN_MOTION_DOT = -.673E-5
MEAN_MOTION_DDOT = 0

CCSDS_OMM_VERS = 2.0
CREATION_DATE  = 
ORIGINATOR     = 

OBJECT_NAME    = STARLINK-35197
OBJECT_ID      = 2025-243S
CENTER_NAME    = EARTH
REF_FRAME      = TEME
TIME_SYSTEM    = UTC
MEAN_ELEMENT_THEORY = SGP/SGP4

EPOCH          = 2025-11-20T18:00:02.000160
MEAN_MOTION    = 15.49268266
ECCENTRICITY   = .0001093
INCLINATION    = 53.1594
RA_OF_ASC_NODE = 31.9682
ARG_OF_PERICENTER = 55.7066
MEAN_ANOMALY   = 345.0892

EPHEMERIS_TYPE = 0
CLASSIFICATION_TYPE = U
NORAD_CAT_ID   = 66193
ELEMENT_SET_NO = 999
REV_AT_EPOCH   = 504
BSTAR          = .88895E-3
MEAN_MOTION_DOT = .49233E-3
MEAN_MOTION_DDOT = 0

CCSDS_OMM_VERS = 2.0
CREATION_DATE  = 
ORIGINATOR     = 

OBJECT_NAME    = STARLINK-35374
OBJECT_ID      = 2025-243T
CENTER_NAME    = EARTH
REF_FRAME      = TEME
TIME_SYSTEM    = UTC
MEAN_ELEMENT_THEORY = SGP/SGP4

EPOCH          = 2025-11-20T18:00:02.000160
MEAN_MOTION    = 15.49270743
ECCENTRICITY   = .0001021
INCLINATION    = 53.1594
RA_OF_ASC_NODE = 31.9723
ARG_OF_PERICENTER = 62.0226
MEAN_ANOMALY   = 336.8506

EPHEMERIS_TYPE = 0
CLASSIFICATION_TYPE = U
NORAD_CAT_ID   = 66194
ELEMENT_SET_NO = 999
REV_AT_EPOCH   = 504
BSTAR          = .88792E-3
MEAN_MOTION_DOT = .49179E-3
MEAN_MOTION_DDOT = 0

CCSDS_OMM_VERS = 2.0
CREATION_DATE  = 
ORIGINATOR     = 

OBJECT_NAME    = STARLINK-34813
OBJECT_ID      = 2025-243U
CENTER_NAME    = EARTH
REF_FRAME      = TEME
TIME_SYSTEM    = UTC
MEAN_ELEMENT_THEORY = SGP/SGP4

EPOCH          = 2025-11-20T18:00:02.000160
MEAN_MOTION    = 15.49271532
ECCENTRICITY   = .0001056
INCLINATION    = 53.1594
RA_OF_ASC_NODE = 31.9765
ARG_OF_PERICENTER = 59.4514
MEAN_ANOMALY   = 337.5019

EPHEMERIS_TYPE = 0
CLASSIFICATION_TYPE = U
NORAD_CAT_ID   = 66195
ELEMENT_SET_NO = 999
REV_AT_EPOCH   = 504
BSTAR          = .91005E-3
MEAN_MOTION_DOT = .50426E-3
MEAN_MOTION_DDOT = 0

CCSDS_OMM_VERS = 2.0
CREATION_DATE  = 
ORIGINATOR     = 

OBJECT_NAME    = STARLINK-35409
OBJECT_ID      = 2025-243V
CENTER_NAME    = EARTH
REF_FRAME      = TEME
TIME_SYSTEM    = UTC
MEAN_ELEMENT_THEORY = SGP/SGP4

EPOCH          = 2025-11-20T18:00:02.000160
MEAN_MOTION    = 15.49268718
ECCENTRICITY   = .0001059
INCLINATION    = 53.1594
RA_OF_ASC_NODE = 31.9807
ARG_OF_PERICENTER = 61.2082
MEAN_ANOMALY   = 333.8310

EPHEMERIS_TYPE = 0
CLASSIFICATION_TYPE = U
NORAD_CAT_ID   = 66196
ELEMENT_SET_NO = 999
REV_AT_EPOCH   = 504
BSTAR          = .9556E-3
MEAN_MOTION_DOT = .52984E-3
MEAN_MOTION_DDOT = 0

CCSDS_OMM_VERS = 2.0
CREATION_DATE  = 
ORIGINATOR     = 

OBJECT_NAME    = STARLINK-35518
OBJECT_ID      = 2025-243X
CENTER_NAME    = EARTH
REF_FRAME      = TEME
TIME_SYSTEM    = UTC
MEAN_ELEMENT_THEORY = SGP/SGP4

EPOCH          = 2025-11-20T18:00:02.000160
MEAN_MOTION    = 15.49268126
ECCENTRICITY   = .0001053
INCLINATION    = 53.1594
RA_OF_ASC_NODE = 31.9886
ARG_OF_PERICENTER = 55.3814
MEAN_ANOMALY   = 335.8312

EPHEMERIS_TYPE = 0
CLASSIFICATION_TYPE = U
NORAD_CAT_ID   = 66197
ELEMENT_SET_NO = 999
REV_AT_EPOCH   = 504
BSTAR          = .87975E-3
MEAN_MOTION_DOT = .48715E-3
MEAN_MOTION_DDOT = 0

CCSDS_OMM_VERS = 2.0
CREATION_DATE  = 
ORIGINATOR     = 

OBJECT_NAME    = STARLINK-35259
OBJECT_ID      = 2025-243W
CENTER_NAME    = EARTH
REF_FRAME      = TEME
TIME_SYSTEM    = UTC
MEAN_ELEMENT_THEORY = SGP/SGP4

EPOCH          = 2025-11-20T18:00:02.000160
MEAN_MOTION    = 15.49146473
ECCENTRICITY   = .0000846
INCLINATION    = 53.1603
RA_OF_ASC_NODE = 31.9075
ARG_OF_PERICENTER = 77.7144
MEAN_ANOMALY   = 351.7825

EPHEMERIS_TYPE = 0
CLASSIFICATION_TYPE = U
NORAD_CAT_ID   = 66198
ELEMENT_SET_NO = 999
REV_AT_EPOCH   = 505
BSTAR          = -.41754E-1
MEAN_MOTION_DOT = -.2055432E-1
MEAN_MOTION_DDOT = 0

