STARLINK-35350          
1 66187U 25243L   25324.75002315  .00049312  00000+0  89033-3 0  9997
2 66187  53.1594  32.0089 0001082  54.2971 327.3278 15.49269310  5049
STARLINK-35041          
1 66188U 25243M   25324.75002315  .00050864  00000+0  91786-3 0  9990
2 66188  53.1592  31.9929 0001088  52.5160 336.7694 15.49271247  5101
STARLINK-34694          
1 66189U 25243N   25324.75002315  .00049519  00000+0  89394-3 0  9998
2 66189  53.1596  31.9847 0001014  57.7610 335.3580 15.49271362  5041
STARLINK-34863          
1 66190U 25243P   25324.75002315  .00052858  00000+0  95335-3 0  9992
2 66190  53.1594  31.9996 0001114  52.1680 333.2865 15.49269168  5047
STARLINK-35061          
1 66191U 25243Q   25324.75002315  .00063470  00000+0  11420-2 0  9997
2 66191  53.1594  31.9605 0001092  60.8724 343.7650 15.49258041  5108
STARLINK-34937          
1 66192U 25243R   25324.75002315 -.00000673  00000+0 -40425-5 0  9996
2 66192  53.1593  31.9643 0000984  60.2332 342.4412 15.49324598  4830
STARLINK-35197          
1 66193U 25243S   25324.75002315  .00049233  00000+0  88895-3 0  9991
2 66193  53.1594  31.9682 0001093  55.7066 345.0892 15.49268266  5044
STARLINK-35374          
1 66194U 25243T   25324.75002315  .00049179  00000+0  88792-3 0  9997
2 66194  53.1594  31.9723 0001021  62.0226 336.8506 15.49270743  5044
STARLINK-34813          
1 66195U 25243U   25324.75002315  .00050426  00000+0  91005-3 0  9996
2 66195  53.1594  31.9765 0001056  59.4514 337.5019 15.49271532  5043
STARLINK-35409          
1 66196U 25243V   25324.75002315  .00052984  00000+0  95560-3 0  9998
2 66196  53.1594  31.9807 0001059  61.2082 333.8310 15.49268718  5040
STARLINK-35518          
1 66197U 25243X   25324.75002315  .00048715  00000+0  87975-3 0  9997
2 66197  53.1594  31.9886 0001053  55.3814 335.8312 15.49268126  5046
STARLINK-35259          
1 66198U 25243W   25324.75002315 -.02055432  00000+0 -41754-1 0  9999
2 66198  53.1603  31.9075 0000846  77.7144 351.7825 15.49146473  5058
